IONOSFERA-M 4           
1 64877U 25155B   26197.21033727  .00000003  00000+0  20746-4 0  9995
2 64877  98.6040 158.3045 0001835  98.5867 261.5519 14.21493307 50522
MICROCARB               
1 64899U 25156A   26197.16188207  .00000245  00000+0  46050-4 0  9992
2 64899  98.0075 273.8504 0017693 167.7282 192.4360 14.72885650 52238
CO3D 3                  
1 64900U 25156B   26197.21548676  .00002075  00000+0  98983-4 0  9996
2 64900  97.4335 275.4913 0001755  93.8998 266.2438 15.20196146 53944
CO3D 4                  
1 64901U 25156C   26197.14981333  .00000644  00000+0  32892-4 0  9997
2 64901  97.4336 275.4263 0001693 152.3780 207.7546 15.20190739 53936
CO3D 2                  
1 64902U 25156D   26197.18229190  .00002056  00000+0  98055-4 0  9990
2 64902  97.4335 275.3573 0001246  90.4662 269.6716 15.20205551 53939
CO3D 1                  
1 64903U 25156E   26197.18244568  .00002186  00000+0  10405-3 0  9993
2 64903  97.4336 275.3574 0001327 101.0505 259.0879 15.20205761 53933
PRSC-S1                 
1 65055U 25164A   26197.16755351  .00002067  00000+0  14876-3 0  9990
2 65055  41.1301 124.5675 0006845 204.1768 155.8725 15.06639280 52802
SENTINEL-6B             
1 66514U 25264A   26197.05200289 -.00000040  00000+0  90619-4 0  9995
2 66514  66.0412  75.2271 0007847 268.7058  91.3058 12.80930161 30863
CAS500-3                
1 66655U 25274F   26196.78785449  .00000592  00000+0  69728-4 0  9995
2 66655  97.7437 124.1886 0006209  36.7609 323.4033 14.88384758 34400
CSG-3                   
1 67304U 26001A   26194.52815792  .00000135  00000+0  23485-4 0  9994
2 67304  97.8894  17.7492 0001518  93.3222 266.8165 14.82151371 28369
PRSC-E03                
1 68835U 26092A   26197.21538818  .00001142  00000+0  82482-4 0  9995
2 68835  38.0011 278.4894 0004973 257.4162 102.6044 15.06811662 12339
CAS500-2                
1 69013U 26100AK  26196.64306276  .00003365  00000+0  15519-3 0  9996
2 69013  97.3865  93.9580 0007774 289.9986  70.0412 15.20905560 11132
